COSMOS 2251 DEB         
1 35676U 93036APT 17343.02487535  .00001879  00000-0  38794-3 0  9999
2 35676  74.0112  93.3297 0034028 235.5911 240.4616 14.60803838454748
